LANDSAT 9               
1 49260U 21088A   23352.60921416  .00000604  00000+0  14412-3 0  9998
2 49260  98.2111  60.1038 0001194  90.3468 269.7867 14.57107371118256
